STARLETTE               
1 07646U 75010A   09079.24793300 -.00000181  00000-0 -28899-4 0  8934
2 07646  49.8228 121.9153 0205834 139.0428 222.6131 13.82271131723388
LAGEOS 1                
1 08820U 76039A   09077.88049271 -.00000018  00000-0  10000-3 0  7492
2 08820 109.8128 181.4859 0044702 211.1005 148.6957  6.38664548511278
EGP                     
1 16908U 86061A   09078.65794874 -.00000083  00000-0  10000-3 0  8589
2 16908  50.0096  74.2752 0011129 349.6291  10.4312 12.44461772696450
LAGEOS 2                
1 22195U 92070B   09078.71945630 -.00000009  00000-0  10000-3 0  9620
2 22195  52.6624 287.4313 0136853 313.4783  45.4469  6.47294084387878
STELLA                  
1 22824U 93061B   09078.23123508  .00000086  00000-0  52666-4 0  2283
2 22824  98.4676  29.3096 0005778 198.1278 161.9702 14.27283525806359
WESTPAC                 
1 25398U 98043E   09078.02730811 -.00000034  00000-0  28731-5 0  4794
2 25398  98.3363 104.1039 0001965  98.2126 261.9272 14.22674653555192
GRACE 1                 
1 27391U 02012A   09078.50830275  .00000698  00000-0  19976-4 0  1475
2 27391  89.0202  14.9314 0019206  92.5354 267.8061 15.34121954391562
GRACE 2                 
1 27392U 02012B   09078.96451628  .00000594  00000-0  16816-4 0  1483
2 27392  89.0202  14.8847 0020267  93.3924 266.9632 15.34121118391638
